{"type": "FeatureCollection", "features": [ {"type": "Feature", "properties": {"norad_id": 37834, "name": "INTELSAT 18 (IS-18)", "group": "intelsat", "lat": 0.01506838701898689, "lon": 0.8615581113936127, "alt_km": 35783.9593668815, "timestamp": "2025-12-24T05:51:19.273187+00:00", "meta": {"OBJECT_NAME": "INTELSAT 18 (IS-18)", "OBJECT_ID": "2011-056A", "EPOCH": "2025-12-23T17:24:42.196032", "MEAN_MOTION": 1.00271479, "ECCENTRICITY": 0.00017794, "INCLINATION": 0.025, "RA_OF_ASC_NODE": 285.7731, "ARG_OF_PERICENTER": 1.9109, "MEAN_ANOMALY": 245.9993, "EPHEMERIS_TYPE": 0, "CLASSIFICATION_TYPE": "U", "NORAD_CAT_ID": 37834, "ELEMENT_SET_NO": 999, "REV_AT_EPOCH": 5205, "BSTAR": 0, "MEAN_MOTION_DOT": 7.4e-07, "MEAN_MOTION_DDOT": 0}, "tle": {"line1": "1 37834U 11056A   25357.72548838  .00000074  00000+0  00000+0 0  9994", "line2": "2 37834   0.0250 285.7731 0001779   1.9109 245.9993  1.00271479 52055"}}, "geometry": {"type": "Point", "coordinates": [0.8615581113936127, 0.01506838701898689]}}, {"type": "Feature", "properties": {"norad_id": 38098, "name": "INTELSAT 22 (IS-22)", "group": "intelsat", "lat": -0.031079984453427308, "lon": -107.08469949321376, "alt_km": 35780.49065367018, "timestamp": "2025-12-24T05:51:19.273199+00:00", "meta": {"OBJECT_NAME": "INTELSAT 22 (IS-22)", "OBJECT_ID": "2012-011A", "EPOCH": "2025-12-23T22:02:08.276640", "MEAN_MOTION": 1.00270433, "ECCENTRICITY": 0.00019305, "INCLINATION": 0.0272, "RA_OF_ASC_NODE": 41.8177, "ARG_OF_PERICENTER": 254.2745, "MEAN_ANOMALY": 199.2293, "EPHEMERIS_TYPE": 0, "CLASSIFICATION_TYPE": "U", "NORAD_CAT_ID": 38098, "ELEMENT_SET_NO": 999, "REV_AT_EPOCH": 543, "BSTAR": 0, "MEAN_MOTION_DOT": 0, "MEAN_MOTION_DDOT": 0}, "tle": {"line1": "1 38098U 12011A   25357.91815135  .00000000  00000+0  00000+0 0  9996", "line2": "2 38098   0.0272  41.8177 0001930 254.2745 199.2293  1.00270433  5438"}}, "geometry": {"type": "Point", "coordinates": [-107.08469949321376, -0.031079984453427308]}}, {"type": "Feature", "properties": {"norad_id": 38356, "name": "INTELSAT 19 (IS-19)", "group": "intelsat", "lat": 0.00198080470909596, "lon": -13.116989628241843, "alt_km": 35783.34656945972, "timestamp": "2025-12-24T05:51:19.273212+00:00", "meta": {"OBJECT_NAME": "INTELSAT 19 (IS-19)", "OBJECT_ID": "2012-030A", "EPOCH": "2025-12-23T20:46:08.056128", "MEAN_MOTION": 1.00272107, "ECCENTRICITY": 0.00028884, "INCLINATION": 0.0148, "RA_OF_ASC_NODE": 321.6246, "ARG_OF_PERICENTER": 307.6478, "MEAN_ANOMALY": 300.9143, "EPHEMERIS_TYPE": 0, "CLASSIFICATION_TYPE": "U", "NORAD_CAT_ID": 38356, "ELEMENT_SET_NO": 999, "REV_AT_EPOCH": 4869, "BSTAR": 0, "MEAN_MOTION_DOT": -3.5e-07, "MEAN_MOTION_DDOT": 0}, "tle": {"line1": "1 38356U 12030A   25357.86537102 -.00000035  00000+0  00000+0 0  9992", "line2": "2 38356   0.0148 321.6246 0002888 307.6478 300.9143  1.00272107 48692"}}, "geometry": {"type": "Point", "coordinates": [-13.116989628241843, 0.00198080470909596]}}, {"type": "Feature", "properties": {"norad_id": 38740, "name": "INTELSAT 20 (IS-20)", "group": "intelsat", "lat": -0.015176403338059629, "lon": -110.63721436776115, "alt_km": 35782.43328456398, "timestamp": "2025-12-24T05:51:19.273224+00:00", "meta": {"OBJECT_NAME": "INTELSAT 20 (IS-20)", "OBJECT_ID": "2012-043A", "EPOCH": "2025-12-23T22:01:00.883776", "MEAN_MOTION": 1.00269794, "ECCENTRICITY": 0.00026774, "INCLINATION": 0.0104, "RA_OF_ASC_NODE": 55.9246, "ARG_OF_PERICENTER": 125.3991, "MEAN_ANOMALY": 310.121, "EPHEMERIS_TYPE": 0, "CLASSIFICATION_TYPE": "U", "NORAD_CAT_ID": 38740, "ELEMENT_SET_NO": 999, "REV_AT_EPOCH": 4899, "BSTAR": 0, "MEAN_MOTION_DOT": -3e-08, "MEAN_MOTION_DDOT": 0}, "tle": {"line1": "1 38740U 12043A   25357.91737134 -.00000003  00000+0  00000+0 0  9991", "line2": "2 38740   0.0104  55.9246 0002677 125.3991 310.1210  1.00269794 48998"}}, "geometry": {"type": "Point", "coordinates": [-110.63721436776115, -0.015176403338059629]}}, {"type": "Feature", "properties": {"norad_id": 38749, "name": "INTELSAT 21 (IS-21)", "group": "intelsat", "lat": 0.012651979692572824, "lon": 122.824588123485, "alt_km": 35791.25710444459, "timestamp": "2025-12-24T05:51:19.273235+00:00", "meta": {"OBJECT_NAME": "INTELSAT 21 (IS-21)", "OBJECT_ID": "2012-045A", "EPOCH": "2025-12-23T11:08:42.768960", "MEAN_MOTION": 1.00268456, "ECCENTRICITY": 0.00015794, "INCLINATION": 0.0167, "RA_OF_ASC_NODE": 301.665, "ARG_OF_PERICENTER": 309.4209, "MEAN_ANOMALY": 310.3485, "EPHEMERIS_TYPE": 0, "CLASSIFICATION_TYPE": "U", "NORAD_CAT_ID": 38749, "ELEMENT_SET_NO": 999, "REV_AT_EPOCH": 4876, "BSTAR": 0, "MEAN_MOTION_DOT": -2.64e-06, "MEAN_MOTION_DDOT": 0}, "tle": {"line1": "1 38749U 12045A   25357.46438390 -.00000264  00000+0  00000+0 0  9993", "line2": "2 38749   0.0167 301.6650 0001579 309.4209 310.3485  1.00268456 48768"}}, "geometry": {"type": "Point", "coordinates": [122.824588123485, 0.012651979692572824]}}, {"type": "Feature", "properties": {"norad_id": 38867, "name": "INTELSAT 23 (IS-23)", "group": "intelsat", "lat": 0.0365168106231458, "lon": 127.82039234062086, "alt_km": 35792.672922331534, "timestamp": "2025-12-24T05:51:19.273247+00:00", "meta": {"OBJECT_NAME": "INTELSAT 23 (IS-23)", "OBJECT_ID": "2012-057A", "EPOCH": "2025-12-23T19:43:44.032224", "MEAN_MOTION": 1.00264604, "ECCENTRICITY": 0.00010732, "INCLINATION": 0.0166, "RA_OF_ASC_NODE": 42.0707, "ARG_OF_PERICENTER": 265.2029, "MEAN_ANOMALY": 28.2517, "EPHEMERIS_TYPE": 0, "CLASSIFICATION_TYPE": "U", "NORAD_CAT_ID": 38867, "ELEMENT_SET_NO": 999, "REV_AT_EPOCH": 4819, "BSTAR": 0, "MEAN_MOTION_DOT": -2.64e-06, "MEAN_MOTION_DDOT": 0}, "tle": {"line1": "1 38867U 12057A   25357.82203741 -.00000264  00000+0  00000+0 0  9997", "line2": "2 38867   0.0166  42.0707 0001073 265.2029  28.2517  1.00264604 48194"}}, "geometry": {"type": "Point", "coordinates": [127.82039234062086, 0.0365168106231458]}}, {"type": "Feature", "properties": {"norad_id": 39360, "name": "FM-6", "group": "intelsat", "lat": 0.011726260728637234, "lon": 64.63931500445108, "alt_km": 35791.52508779959, "timestamp": "2025-12-24T05:51:19.273259+00:00", "meta": {"OBJECT_NAME": "FM-6", "OBJECT_ID": "2013-058A", "EPOCH": "2025-12-23T11:38:38.460768", "MEAN_MOTION": 1.00269364, "ECCENTRICITY": 0.00029708, "INCLINATION": 0.0125, "RA_OF_ASC_NODE": 63.3346, "ARG_OF_PERICENTER": 113.984, "MEAN_ANOMALY": 333.4468, "EPHEMERIS_TYPE": 0, "CLASSIFICATION_TYPE": "U", "NORAD_CAT_ID": 39360, "ELEMENT_SET_NO": 999, "REV_AT_EPOCH": 4431, "BSTAR": 0, "MEAN_MOTION_DOT": 4e-08, "MEAN_MOTION_DDOT": 0}, "tle": {"line1": "1 39360U 13058A   25357.48516737  .00000004  00000+0  00000+0 0  9993", "line2": "2 39360   0.0125  63.3346 0002970 113.9840 333.4468  1.00269364 44314"}}, "geometry": {"type": "Point", "coordinates": [64.63931500445108, 0.011726260728637234]}}, {"type": "Feature", "properties": {"norad_id": 40271, "name": "INTELSAT 30 (IS-30)", "group": "intelsat", "lat": 0.031766063097437874, "lon": 85.78585048849905, "alt_km": 35779.986853025344, "timestamp": "2025-12-24T05:51:19.273271+00:00", "meta": {"OBJECT_NAME": "INTELSAT 30 (IS-30)", "OBJECT_ID": "2014-062A", "EPOCH": "2025-12-23T13:22:24.176064", "MEAN_MOTION": 1.00269419, "ECCENTRICITY": 0.0001607, "INCLINATION": 0.0118, "RA_OF_ASC_NODE": 25.2315, "ARG_OF_PERICENTER": 65.5054, "MEAN_ANOMALY": 107.1564, "EPHEMERIS_TYPE": 0, "CLASSIFICATION_TYPE": "U", "NORAD_CAT_ID": 40271, "ELEMENT_SET_NO": 999, "REV_AT_EPOCH": 503, "BSTAR": 0, "MEAN_MOTION_DOT": -1.29e-06, "MEAN_MOTION_DDOT": 0}, "tle": {"line1": "1 40271U 14062A   25357.55722426 -.00000129  00000+0  00000+0 0  9993", "line2": "2 40271   0.0118  25.2315 0001607  65.5054 107.1564  1.00269419  5037"}}, "geometry": {"type": "Point", "coordinates": [85.78585048849905, 0.031766063097437874]}}, {"type": "Feature", "properties": {"norad_id": 40333, "name": "DIRECTV 14", "group": "intelsat", "lat": 0.04305067004691184, "lon": 81.62041452151374, "alt_km": 35786.596078029084, "timestamp": "2025-12-24T05:51:19.273282+00:00", "meta": {"OBJECT_NAME": "DIRECTV 14", "OBJECT_ID": "2014-078B", "EPOCH": "2025-12-23T11:18:37.238976", "MEAN_MOTION": 1.00271389, "ECCENTRICITY": 3.845e-05, "INCLINATION": 0.0218, "RA_OF_ASC_NODE": 6.297, "ARG_OF_PERICENTER": 179.2975, "MEAN_ANOMALY": 337.1009, "EPHEMERIS_TYPE": 0, "CLASSIFICATION_TYPE": "U", "NORAD_CAT_ID": 40333, "ELEMENT_SET_NO": 999, "REV_AT_EPOCH": 4028, "BSTAR": 0, "MEAN_MOTION_DOT": 0, "MEAN_MOTION_DDOT": 0}, "tle": {"line1": "1 40333U 14078B   25357.47126434  .00000000  00000+0  00000+0 0  9994", "line2": "2 40333   0.0218   6.2970 0000384 179.2975 337.1009  1.00271389 40283"}}, "geometry": {"type": "Point", "coordinates": [81.62041452151374, 0.04305067004691184]}}, {"type": "Feature", "properties": {"norad_id": 40663, "name": "DIRECTV 15", "group": "intelsat", "lat": 0.03905843944132887, "lon": 77.95090416620002, "alt_km": 35787.22186059721, "timestamp": "2025-12-24T05:51:19.273294+00:00", "meta": {"OBJECT_NAME": "DIRECTV 15", "OBJECT_ID": "2015-026A", "EPOCH": "2025-12-23T16:04:04.915776", "MEAN_MOTION": 1.00267894, "ECCENTRICITY": 5.609e-05, "INCLINATION": 0.0212, "RA_OF_ASC_NODE": 18.8544, "ARG_OF_PERICENTER": 150.3599, "MEAN_ANOMALY": 61.3814, "EPHEMERIS_TYPE": 0, "CLASSIFICATION_TYPE": "U", "NORAD_CAT_ID": 40663, "ELEMENT_SET_NO": 999, "REV_AT_EPOCH": 3870, "BSTAR": 0, "MEAN_MOTION_DOT": 0, "MEAN_MOTION_DDOT": 0}, "tle": {"line1": "1 40663U 15026A   25357.66950134  .00000000  00000+0  00000+0 0  9997", "line2": "2 40663   0.0212  18.8544 0000560 150.3599  61.3814  1.00267894 38707"}}, "geometry": {"type": "Point", "coordinates": [77.95090416620002, 0.03905843944132887]}}]}